{
"type": "FeatureCollection",
"name": "campus_fences",
"crs": { "type": "name", "properties": { "name": "urn:ogc:def:crs:OGC:1.3:CRS84" } },
"features": [
{ "type": "Feature", "properties": { "fence_id": "F001", "name": "食堂停车区", "type": "parking", "max_capacity": 50 }, "geometry": { "type": "Polygon", "coordinates": [ [ [ 116.403, 39.915 ], [ 116.4045, 39.915 ], [ 116.4045, 39.9165 ], [ 116.403, 39.9165 ], [ 116.403, 39.915 ] ] ] } },
{ "type": "Feature", "properties": { "fence_id": "F002", "name": "图书馆停车区", "type": "parking", "max_capacity": 80 }, "geometry": { "type": "Polygon", "coordinates": [ [ [ 116.401, 39.912 ], [ 116.4025, 39.912 ], [ 116.4025, 39.9135 ], [ 116.401, 39.9135 ], [ 116.401, 39.912 ] ] ] } },
{ "type": "Feature", "properties": { "fence_id": "F003", "name": "宿舍区停车区", "type": "parking", "max_capacity": 120 }, "geometry": { "type": "Polygon", "coordinates": [ [ [ 116.398, 39.917 ], [ 116.4, 39.917 ], [ 116.4, 39.919 ], [ 116.398, 39.919 ], [ 116.398, 39.917 ] ] ] } },
{ "type": "Feature", "properties": { "fence_id": "F004", "name": "教学楼停车区", "type": "parking", "max_capacity": 150 }, "geometry": { "type": "Polygon", "coordinates": [ [ [ 116.405, 39.91 ], [ 116.407, 39.91 ], [ 116.407, 39.912 ], [ 116.405, 39.912 ], [ 116.405, 39.91 ] ] ] } },
{ "type": "Feature", "properties": { "fence_id": "F005", "name": "体育馆停车区", "type": "parking", "max_capacity": 60 }, "geometry": { "type": "Polygon", "coordinates": [ [ [ 116.399, 39.909 ], [ 116.401, 39.909 ], [ 116.401, 39.9105 ], [ 116.399, 39.9105 ], [ 116.399, 39.909 ] ] ] } }
]
}
